{"type": "FeatureCollection", "features": [ {"type": "Feature", "properties": {"norad_id": 44476, "name": "INTELSAT 39 (IS-39)", "group": "intelsat", "lat": 0.03257056642536306, "lon": 99.94936343962883, "alt_km": 35784.963046332276, "timestamp": "2025-12-04T21:36:15.542484+00:00", "meta": {"OBJECT_NAME": "INTELSAT 39 (IS-39)", "OBJECT_ID": "2019-049B", "EPOCH": "2025-12-04T12:18:31.787424", "MEAN_MOTION": 1.00270541, "ECCENTRICITY": 6.723e-05, "INCLINATION": 0.0172, "RA_OF_ASC_NODE": 330.3797, "ARG_OF_PERICENTER": 188.8386, "MEAN_ANOMALY": 160.9448, "EPHEMERIS_TYPE": 0, "CLASSIFICATION_TYPE": "U", "NORAD_CAT_ID": 44476, "ELEMENT_SET_NO": 999, "REV_AT_EPOCH": 2317, "BSTAR": 0, "MEAN_MOTION_DOT": 4.8e-07, "MEAN_MOTION_DDOT": 0}, "tle": {"line1": "1 44476U 19049B   25338.51286791  .00000048  00000+0  00000+0 0  9998", "line2": "2 44476   0.0172 330.3797 0000672 188.8386 160.9448  1.00270541 23171"}}, "geometry": {"type": "Point", "coordinates": [99.94936343962883, 0.03257056642536306]}}, {"type": "Feature", "properties": {"norad_id": 46114, "name": "GALAXY 30 (G-30)", "group": "intelsat", "lat": -0.034327248657740596, "lon": -86.97336519619944, "alt_km": 35776.89133350783, "timestamp": "2025-12-04T21:36:15.542495+00:00", "meta": {"OBJECT_NAME": "GALAXY 30 (G-30)", "OBJECT_ID": "2020-056C", "EPOCH": "2025-12-04T14:10:38.723808", "MEAN_MOTION": 1.00270006, "ECCENTRICITY": 0.0002489, "INCLINATION": 0.0158, "RA_OF_ASC_NODE": 328.6937, "ARG_OF_PERICENTER": 280.7734, "MEAN_ANOMALY": 271.8612, "EPHEMERIS_TYPE": 0, "CLASSIFICATION_TYPE": "U", "NORAD_CAT_ID": 46114, "ELEMENT_SET_NO": 999, "REV_AT_EPOCH": 1934, "BSTAR": 0, "MEAN_MOTION_DOT": 5.1e-07, "MEAN_MOTION_DDOT": 0}, "tle": {"line1": "1 46114U 20056C   25338.59072597  .00000051  00000+0  00000+0 0  9998", "line2": "2 46114   0.0158 328.6937 0002489 280.7734 271.8612  1.00270006 19344"}}, "geometry": {"type": "Point", "coordinates": [-86.97336519619944, -0.034327248657740596]}}, {"type": "Feature", "properties": {"norad_id": 54026, "name": "GALAXY 33 (G-33)", "group": "intelsat", "lat": -0.035043857820261, "lon": -94.96188477657421, "alt_km": 35777.445779606685, "timestamp": "2025-12-04T21:36:15.542507+00:00", "meta": {"OBJECT_NAME": "GALAXY 33 (G-33)", "OBJECT_ID": "2022-128A", "EPOCH": "2025-12-04T04:32:00.542688", "MEAN_MOTION": 1.00272957, "ECCENTRICITY": 0.00020139, "INCLINATION": 0.0134, "RA_OF_ASC_NODE": 359.762, "ARG_OF_PERICENTER": 250.3751, "MEAN_ANOMALY": 118.1476, "EPHEMERIS_TYPE": 0, "CLASSIFICATION_TYPE": "U", "NORAD_CAT_ID": 54026, "ELEMENT_SET_NO": 999, "REV_AT_EPOCH": 1178, "BSTAR": 0, "MEAN_MOTION_DOT": 9.5e-07, "MEAN_MOTION_DDOT": 0}, "tle": {"line1": "1 54026U 22128A   25338.18889517  .00000095  00000+0  00000+0 0  9992", "line2": "2 54026   0.0134 359.7620 0002013 250.3751 118.1476  1.00272957 11786"}}, "geometry": {"type": "Point", "coordinates": [-94.96188477657421, -0.035043857820261]}}, {"type": "Feature", "properties": {"norad_id": 54027, "name": "GALAXY 34 (G-34)", "group": "intelsat", "lat": -0.0413672818868762, "lon": -90.92306360840566, "alt_km": 35781.81146739961, "timestamp": "2025-12-04T21:36:15.542518+00:00", "meta": {"OBJECT_NAME": "GALAXY 34 (G-34)", "OBJECT_ID": "2022-128B", "EPOCH": "2025-12-04T14:10:38.723808", "MEAN_MOTION": 1.00269584, "ECCENTRICITY": 0.00012851, "INCLINATION": 0.0223, "RA_OF_ASC_NODE": 328.1403, "ARG_OF_PERICENTER": 274.2387, "MEAN_ANOMALY": 275.0049, "EPHEMERIS_TYPE": 0, "CLASSIFICATION_TYPE": "U", "NORAD_CAT_ID": 54027, "ELEMENT_SET_NO": 999, "REV_AT_EPOCH": 1196, "BSTAR": 0, "MEAN_MOTION_DOT": 0, "MEAN_MOTION_DDOT": 0}, "tle": {"line1": "1 54027U 22128B   25338.59072597  .00000000  00000+0  00000+0 0  9996", "line2": "2 54027   0.0223 328.1403 0001285 274.2387 275.0049  1.00269584 11966"}}, "geometry": {"type": "Point", "coordinates": [-90.92306360840566, -0.0413672818868762]}}, {"type": "Feature", "properties": {"norad_id": 54243, "name": "GALAXY 31 (G-31)", "group": "intelsat", "lat": -0.026597335300915376, "lon": -82.98219689629512, "alt_km": 35778.0469742418, "timestamp": "2025-12-04T21:36:15.542530+00:00", "meta": {"OBJECT_NAME": "GALAXY 31 (G-31)", "OBJECT_ID": "2022-153A", "EPOCH": "2025-12-04T14:02:38.764032", "MEAN_MOTION": 1.00270474, "ECCENTRICITY": 0.00020116, "INCLINATION": 0.0155, "RA_OF_ASC_NODE": 30.9903, "ARG_OF_PERICENTER": 236.2733, "MEAN_ANOMALY": 256.0574, "EPHEMERIS_TYPE": 0, "CLASSIFICATION_TYPE": "U", "NORAD_CAT_ID": 54243, "ELEMENT_SET_NO": 999, "REV_AT_EPOCH": 518, "BSTAR": 0, "MEAN_MOTION_DOT": 2.8e-07, "MEAN_MOTION_DDOT": 0}, "tle": {"line1": "1 54243U 22153A   25338.58517088  .00000028  00000+0  00000+0 0  9992", "line2": "2 54243   0.0155  30.9903 0002011 236.2733 256.0574  1.00270474  5183"}}, "geometry": {"type": "Point", "coordinates": [-82.98219689629512, -0.026597335300915376]}}, {"type": "Feature", "properties": {"norad_id": 54244, "name": "GALAXY 32 (G-32)", "group": "intelsat", "lat": -0.014856347320449608, "lon": -52.96369753258049, "alt_km": 35773.7245324956, "timestamp": "2025-12-04T21:36:15.542541+00:00", "meta": {"OBJECT_NAME": "GALAXY 32 (G-32)", "OBJECT_ID": "2022-153B", "EPOCH": "2025-12-04T06:26:43.019808", "MEAN_MOTION": 1.00276972, "ECCENTRICITY": 0.00026447, "INCLINATION": 0.0105, "RA_OF_ASC_NODE": 335.682, "ARG_OF_PERICENTER": 320.5461, "MEAN_ANOMALY": 142.8021, "EPHEMERIS_TYPE": 0, "CLASSIFICATION_TYPE": "U", "NORAD_CAT_ID": 54244, "ELEMENT_SET_NO": 999, "REV_AT_EPOCH": 1119, "BSTAR": 0, "MEAN_MOTION_DOT": -1.59e-06, "MEAN_MOTION_DDOT": 0}, "tle": {"line1": "1 54244U 22153B   25338.26855347 -.00000159  00000+0  00000+0 0  9997", "line2": "2 54244   0.0105 335.6820 0002644 320.5461 142.8021  1.00276972 11195"}}, "geometry": {"type": "Point", "coordinates": [-52.96369753258049, -0.014856347320449608]}}, {"type": "Feature", "properties": {"norad_id": 54741, "name": "GALAXY 35 (G-35)", "group": "intelsat", "lat": -0.024161766415821094, "lon": -55.07821138942584, "alt_km": 35777.864861252456, "timestamp": "2025-12-04T21:36:15.542553+00:00", "meta": {"OBJECT_NAME": "GALAXY 35 (G-35)", "OBJECT_ID": "2022-170A", "EPOCH": "2025-12-04T13:16:59.657664", "MEAN_MOTION": 1.00270528, "ECCENTRICITY": 0.00027694, "INCLINATION": 0.0151, "RA_OF_ASC_NODE": 0.0134, "ARG_OF_PERICENTER": 262.0557, "MEAN_ANOMALY": 277.6941, "EPHEMERIS_TYPE": 0, "CLASSIFICATION_TYPE": "U", "NORAD_CAT_ID": 54741, "ELEMENT_SET_NO": 999, "REV_AT_EPOCH": 1094, "BSTAR": 0, "MEAN_MOTION_DOT": 0, "MEAN_MOTION_DDOT": 0}, "tle": {"line1": "1 54741U 22170A   25338.55346826  .00000000  00000+0  00000+0 0  9991", "line2": "2 54741   0.0151   0.0134 0002769 262.0557 277.6941  1.00270528 10944"}}, "geometry": {"type": "Point", "coordinates": [-55.07821138942584, -0.024161766415821094]}}, {"type": "Feature", "properties": {"norad_id": 54742, "name": "GALAXY 36 (G-36)", "group": "intelsat", "lat": 0.005685118014066772, "lon": -50.981008460840535, "alt_km": 35784.91003424901, "timestamp": "2025-12-04T21:36:15.542564+00:00", "meta": {"OBJECT_NAME": "GALAXY 36 (G-36)", "OBJECT_ID": "2022-170B", "EPOCH": "2025-12-04T13:18:14.538816", "MEAN_MOTION": 1.00271016, "ECCENTRICITY": 6.019e-05, "INCLINATION": 0.0144, "RA_OF_ASC_NODE": 275.7548, "ARG_OF_PERICENTER": 336.826, "MEAN_ANOMALY": 291.6079, "EPHEMERIS_TYPE": 0, "CLASSIFICATION_TYPE": "U", "NORAD_CAT_ID": 54742, "ELEMENT_SET_NO": 999, "REV_AT_EPOCH": 1082, "BSTAR": 0, "MEAN_MOTION_DOT": -1.71e-06, "MEAN_MOTION_DDOT": 0}, "tle": {"line1": "1 54742U 22170B   25338.55433494 -.00000171  00000+0  00000+0 0  9990", "line2": "2 54742   0.0144 275.7548 0000601 336.8260 291.6079  1.00271016 10829"}}, "geometry": {"type": "Point", "coordinates": [-50.981008460840535, 0.005685118014066772]}}, {"type": "Feature", "properties": {"norad_id": 57493, "name": "GALAXY 37 (G-37)", "group": "intelsat", "lat": -0.026026511737556376, "lon": -88.97298827857664, "alt_km": 35776.838295222246, "timestamp": "2025-12-04T21:36:15.542576+00:00", "meta": {"OBJECT_NAME": "GALAXY 37 (G-37)", "OBJECT_ID": "2023-112A", "EPOCH": "2025-12-04T14:10:38.723808", "MEAN_MOTION": 1.00269836, "ECCENTRICITY": 0.00023849, "INCLINATION": 0.012, "RA_OF_ASC_NODE": 308.4248, "ARG_OF_PERICENTER": 307.8922, "MEAN_ANOMALY": 263.0163, "EPHEMERIS_TYPE": 0, "CLASSIFICATION_TYPE": "U", "NORAD_CAT_ID": 57493, "ELEMENT_SET_NO": 999, "REV_AT_EPOCH": 859, "BSTAR": 0, "MEAN_MOTION_DOT": 6.3e-07, "MEAN_MOTION_DDOT": 0}, "tle": {"line1": "1 57493U 23112A   25338.59072597  .00000063  00000+0  00000+0 0  9999", "line2": "2 57493   0.0120 308.4248 0002384 307.8922 263.0163  1.00269836  8598"}}, "geometry": {"type": "Point", "coordinates": [-88.97298827857664, -0.026026511737556376]}}]}